     2.100          NAVIGATION                              RINEX VERSION / TYPE
fic2rin                                 02/18/2018 00:04:51 PGM / RUN BY / DATE
                                                            END OF HEADER
16 18  2 17  4  0  0.0  .320896506310D-04 -.795807864051D-12  .000000000000D+00
     .530000000000D+02  .206562500000D+02  .365229498989D-08 -.179234988051D+01
     .784173607826D-06  .988087884616D-02  .126603990793D-04  .515359032822D+04
     .532800000000D+06  .484287738800D-07 -.289026232108D+01 -.130385160446D-06
     .988255126667D+00  .146343750000D+03  .467381800122D+00 -.745245328174D-08
    -.378587198248D-10  .100000000000D+01  .198800000000D+04  .000000000000D+00
     .240000000000D+01  .000000000000D+00 -.107102096081D-07  .530000000000D+02
     .525606000000D+06  .400000000000D+01
17 18  2 17  4  0  0.0 -.122595112771D-03  .295585778076D-11  .000000000000D+00
     .660000000000D+02  .104156250000D+03  .426374903083D-08 -.281802773316D+01
     .548548996449D-05  .123462975025D-01  .501424074173D-05  .515376333237D+04
     .532800000000D+06  .234693288803D-06 -.187486057849D+01  .260770320892D-07
     .981837746855D+00  .292468750000D+03 -.178999656319D+01 -.790568644643D-08
     .408588447920D-09  .100000000000D+01  .198800000000D+04  .000000000000D+00
     .240000000000D+01  .000000000000D+00 -.111758708954D-07  .660000000000D+02
     .525606000000D+06  .400000000000D+01
19 18  2 17  4  0  0.0 -.456550624222D-03  .261479726760D-11  .000000000000D+00
     .500000000000D+01  .929687500000D+02  .441232664826D-08  .206449357570D+00
     .500120222569D-05  .972145970445D-02  .482238829136D-05  .515369813919D+04
     .532800000000D+06 -.102445483208D-06 -.182763349403D+01  .119209289551D-06
     .979253763930D+00  .297968750000D+03  .112473660010D+01 -.830213153139D-08
     .310012913282D-09  .100000000000D+01  .198800000000D+04  .000000000000D+00
     .240000000000D+01  .000000000000D+00 -.153668224812D-07  .500000000000D+01
     .525606000000D+06  .400000000000D+01
20 18  2 17  4  0  0.0  .501090660691D-03  .909494701773D-12  .000000000000D+00
     .470000000000D+02 -.836250000000D+02  .494163441034D-08  .239089153208D+01
    -.429339706898D-05  .444845785387D-02  .114068388939D-04  .515379460526D+04
     .532800000000D+06  .838190317154D-07  .653118386717D-01  .149011611938D-07
     .928466770733D+00  .140531250000D+03  .179265068865D+01 -.817748348215D-08
    -.244653047924D-09  .100000000000D+01  .198800000000D+04  .000000000000D+00
     .240000000000D+01  .000000000000D+00 -.838190317154D-08  .470000000000D+02
     .525606000000D+06  .400000000000D+01
21 18  2 17  4  0  0.0 -.429503619671D-03  .432009983342D-11  .000000000000D+00
     .134000000000D+03 -.546250000000D+02  .550130057982D-08 -.358623550316D+00
    -.274181365967D-05  .244434993947D-01  .284425914288D-05  .515375674057D+04
     .532800000000D+06 -.322237610817D-06 -.922593011279D+00  .141561031342D-06
     .942572158097D+00  .317375000000D+03 -.159341263215D+01 -.926252867864D-08
    -.194650965137D-09  .100000000000D+01  .198800000000D+04  .000000000000D+00
     .240000000000D+01  .000000000000D+00 -.102445483208D-07  .134000000000D+03
     .525606000000D+06  .400000000000D+01
22 18  2 17  4  0  0.0 -.294258818030D-03 -.129602995003D-10  .000000000000D+00
     .820000000000D+02 -.845625000000D+02  .499342228180D-08  .290934743331D+01
    -.442005693913D-05  .729479826987D-02  .109560787678D-04  .515359699059D+04
     .532800000000D+06  .782310962677D-07  .115607140713D+00 -.186264514923D-07
     .925182882449D+00  .146687500000D+03 -.161278875535D+01 -.809390857235D-08
    -.152149194768D-09  .100000000000D+01  .198800000000D+04  .000000000000D+00
     .240000000000D+01  .000000000000D+00 -.176951289177D-07  .820000000000D+02
     .525606000000D+06  .400000000000D+01
23 18  2 17  4  0  0.0 -.218927394599D-03  .113686837722D-12  .000000000000D+00
     .850000000000D+02  .539062500000D+02  .497842165696D-08  .222404359952D+01
     .264681875706D-05  .119976232527D-01  .787898898125D-05  .515359474564D+04
     .532800000000D+06 -.208616256714D-06  .120489534566D+01 -.236555933952D-06
     .943534382223D+00  .219281250000D+03 -.239654420511D+01 -.821569935971D-08
     .556451749877D-09  .100000000000D+01  .198800000000D+04  .000000000000D+00
     .240000000000D+01  .000000000000D+00 -.200234353542D-07  .850000000000D+02
     .525606000000D+06  .400000000000D+01
24 18  2 17  4  0  0.0 -.461428426206D-04 -.454747350886D-12  .000000000000D+00
     .520000000000D+02 -.329687500000D+02  .537450958418D-08  .163022357603D+01
    -.176019966602D-05  .682015926577D-02  .484101474285D-05  .515365014267D+04
     .532800000000D+06 -.875443220139D-07  .222610178774D+01  .104308128357D-06
     .942285869417D+00  .275625000000D+03  .526954824755D+00 -.860500128999D-08
    -.321441960776D-09  .100000000000D+01  .198800000000D+04  .000000000000D+00
     .240000000000D+01  .000000000000D+00  .279396772385D-08  .520000000000D+02
     .525606000000D+06  .400000000000D+01
25 18  2 17  4  0  0.0 -.539997126907D-03 -.613908923697D-11  .000000000000D+00
     .590000000000D+02  .190000000000D+02  .404445418204D-08 -.330832770593D+00
     .100769102573D-05  .718843203504D-02  .125691294670D-04  .515368945312D+04
     .532800000000D+06  .447034835815D-07 -.296762653031D+01  .502914190292D-07
     .975518849224D+00  .148375000000D+03  .810208951198D+00 -.780711091179D-08
    -.245010205659D-09  .100000000000D+01  .198800000000D+04  .000000000000D+00
     .240000000000D+01  .000000000000D+00  .558793544769D-08  .590000000000D+02
     .525606000000D+06  .400000000000D+01
26 18  2 17  4  0  0.0 -.247746706009D-03  .136424205266D-10  .000000000000D+00
     .108000000000D+03  .168750000000D+01  .435375277985D-08 -.832799351196D+00
     .409781932831D-07  .269003433641D-02  .123623758554D-04  .515361583138D+04
     .532800000000D+06  .558793544769D-08 -.298777126336D+01 -.726431608200D-07
     .957106657368D+00  .135781250000D+03  .181805373152D-01 -.789640034534D-08
    -.242152943785D-09  .100000000000D+01  .198800000000D+04  .000000000000D+00
     .240000000000D+01  .000000000000D+00  .745058059692D-08  .108000000000D+03
     .525606000000D+06  .400000000000D+01
28 18  2 17  4  0  0.0  .689471606165D-03  .329691829393D-11  .000000000000D+00
     .130000000000D+02  .360937500000D+02  .359729269882D-08 -.183513158409D+01
     .215508043766D-05  .197212994099D-01  .121910125017D-04  .515368073082D+04
     .532800000000D+06  .201165676117D-06 -.288594208847D+01  .452622771263D-06
     .987104763961D+00  .156281250000D+03 -.152597030491D+01 -.734637743468D-08
    -.129291099779D-09  .100000000000D+01  .198800000000D+04  .000000000000D+00
     .340000000000D+01  .000000000000D+00 -.111758708954D-07  .130000000000D+02
     .525606000000D+06  .400000000000D+01
29 18  2 17  4  0  0.0  .495175365359D-03 -.579802872380D-11  .000000000000D+00
     .880000000000D+02  .104281250000D+03  .435589572626D-08 -.131262339539D+01
     .542588531971D-05  .518846209161D-03  .549294054508D-05  .515373393059D+04
     .532800000000D+06  .316649675369D-07 -.186439178603D+01 -.558793544769D-08
     .983064623102D+00  .287843750000D+03  .751302674886D+00 -.811569519414D-08
     .443947063606D-09  .100000000000D+01  .198800000000D+04  .000000000000D+00
     .240000000000D+01  .000000000000D+00 -.102445483208D-07  .880000000000D+02
     .525606000000D+06  .400000000000D+01
30 18  2 17  4  0  0.0  .102846883237D-03 -.352429196937D-11  .000000000000D+00
     .970000000000D+02 -.425000000000D+02  .519271629748D-08  .882276608465D+00
    -.219233334064D-05  .302635726985D-02  .516884028912D-05  .515376714897D+04
     .532800000000D+06  .111758708954D-07  .231918727683D+01  .316649675369D-07
     .944935554919D+00  .271125000000D+03 -.313021114362D+01 -.849213944598D-08
    -.344657213499D-09  .100000000000D+01  .198800000000D+04  .000000000000D+00
     .240000000000D+01  .000000000000D+00  .372529029846D-08  .970000000000D+02
     .525606000000D+06  .400000000000D+01
31 18  2 17  4  0  0.0  .141201540828D-03 -.261479726760D-11  .000000000000D+00
     .530000000000D+02 -.362500000000D+02  .482127225391D-08  .494272371743D+00
    -.180490314960D-05  .882575707510D-02  .508874654770D-05  .515360098648D+04
     .532800000000D+06  .186264514923D-06  .229622023980D+01 -.149011611938D-07
     .963960105265D+00  .280906250000D+03 -.152204678496D+00 -.835070498324D-08
    -.267153985179D-09  .100000000000D+01  .198800000000D+04  .000000000000D+00
     .240000000000D+01  .000000000000D+00 -.135041773319D-07  .530000000000D+02
     .525606000000D+06  .400000000000D+01
32 18  2 17  4  0  0.0 -.532000791281D-03  .102318153949D-11  .000000000000D+00
     .650000000000D+02  .485625000000D+02  .461554939902D-08 -.190897568765D+01
     .257976353168D-05  .170521368273D-02  .810064375401D-05  .515363271713D+04
     .532800000000D+06 -.316649675369D-07  .121008418443D+01 -.689178705215D-07
     .957104768741D+00  .222781250000D+03 -.269124619364D+01 -.804712090917D-08
     .598953520247D-09  .100000000000D+01  .198800000000D+04  .000000000000D+00
     .240000000000D+01  .000000000000D+00  .465661287308D-09  .650000000000D+02
     .525606000000D+06  .400000000000D+01
22 18  2 17  3 59 44.0 -.294257886708D-03 -.129602995003D-10  .000000000000D+00
     .200000000000D+01 -.845625000000D+02  .499342228180D-08  .290701381126D+01
    -.442005693913D-05  .729480083100D-02  .109560787678D-04  .515359699249D+04
     .532784000000D+06  .782310962677D-07  .115607273838D+00 -.186264514923D-07
     .925182875135D+00  .146687500000D+03 -.161278898796D+01 -.809390857235D-08
    -.152149194768D-09  .100000000000D+01  .198800000000D+04  .000000000000D+00
     .240000000000D+01  .000000000000D+00 -.176951289177D-07  .200000000000D+01
     .528216000000D+06  .400000000000D+01
